[{"OBJECT_NAME":"STARLINK-31381","OBJECT_ID":"2024-068Q","EPOCH":"2026-03-09T05:53:36.970656","MEAN_MOTION":15.27584318,"ECCENTRICITY":0.00013478,"INCLINATION":43.0026,"RA_OF_ASC_NODE":33.6651,"ARG_OF_PERICENTER":260.9479,"MEAN_ANOMALY":99.122,"EPHEMERIS_TYPE":0,"CLASSIFICATION_TYPE":"U","NORAD_CAT_ID":59469,"ELEMENT_SET_NO":999,"REV_AT_EPOCH":10849,"BSTAR":1.5253567e-5,"MEAN_MOTION_DOT":1.58e-6,"MEAN_MOTION_DDOT":0},{"OBJECT_NAME":"FLOCK 4G-18","OBJECT_ID":"2025-009BZ","EPOCH":"2026-03-09T04:35:14.656704","MEAN_MOTION":15.27241676,"ECCENTRICITY":0.00041001,"INCLINATION":97.4054,"RA_OF_ASC_NODE":150.5008,"ARG_OF_PERICENTER":335.7331,"MEAN_ANOMALY":24.3715,"EPHEMERIS_TYPE":0,"CLASSIFICATION_TYPE":"U","NORAD_CAT_ID":62680,"ELEMENT_SET_NO":999,"REV_AT_EPOCH":12126,"BSTAR":0.0004431856,"MEAN_MOTION_DOT":0.00011766,"MEAN_MOTION_DDOT":0}]
